0 COSMOS 1331 DEB
1 37863U 82001E   13281.58551707  .00000196  00000-0  73393-4 0   931
2 37863 074.0505 009.0363 0023121 015.2523 344.9305 14.37958216535173
0 COSMOS 1331 DEB
1 37863U 82001E   13285.89891543  .00000222  00000-0  81900-4 0   948
2 37863 074.0500 001.1019 0023657 003.7939 356.3486 14.37960739535794
0 COSMOS 1331 DEB
1 37863U 82001E   13289.51659570  .00000242  00000-0  88324-4 0   953
2 37863 074.0509 354.4505 0024138 359.3964 000.7085 14.37962851536311
0 COSMOS 1331 DEB
1 37863U 82001E   13294.80396699  .00000305  00000-0  10936-3 0   965
2 37863 074.0495 344.7045 0024870 345.7952 014.2737 14.37967133537071
